[{"OBJECT_NAME":"HELIOS 1B","OBJECT_ID":"1999-064A","EPOCH":"2026-03-12T17:46:17.993856","MEAN_MOTION":14.87713347,"ECCENTRICITY":0.0002417,"INCLINATION":98.1686,"RA_OF_ASC_NODE":334.0732,"ARG_OF_PERICENTER":70.9295,"MEAN_ANOMALY":289.2182,"EPHEMERIS_TYPE":0,"CLASSIFICATION_TYPE":"U","NORAD_CAT_ID":25977,"ELEMENT_SET_NO":999,"REV_AT_EPOCH":68571,"BSTAR":0.00026573,"MEAN_MOTION_DOT":2.363e-5,"MEAN_MOTION_DDOT":0},{"OBJECT_NAME":"TERRA","OBJECT_ID":"1999-068A","EPOCH":"2026-03-12T19:08:26.804544","MEAN_MOTION":14.61018611,"ECCENTRICITY":0.0002884,"INCLINATION":97.9588,"RA_OF_ASC_NODE":125.1135,"ARG_OF_PERICENTER":144.4376,"MEAN_ANOMALY":278.8082,"EPHEMERIS_TYPE":0,"CLASSIFICATION_TYPE":"U","NORAD_CAT_ID":25994,"ELEMENT_SET_NO":999,"REV_AT_EPOCH":39553,"BSTAR":0.00012058,"MEAN_MOTION_DOT":5.47e-6,"MEAN_MOTION_DDOT":0},{"OBJECT_NAME":"SL-16 R/B","OBJECT_ID":"2000-006B","EPOCH":"2026-03-12T11:38:47.085216","MEAN_MOTION":14.15825371,"ECCENTRICITY":0.0016616,"INCLINATION":71.0006,"RA_OF_ASC_NODE":91.9589,"ARG_OF_PERICENTER":186.1025,"MEAN_ANOMALY":173.9898,"EPHEMERIS_TYPE":0,"CLASSIFICATION_TYPE":"U","NORAD_CAT_ID":26070,"ELEMENT_SET_NO":999,"REV_AT_EPOCH":34895,"BSTAR":-6.1237e-5,"MEAN_MOTION_DOT":-1.68e-6,"MEAN_MOTION_DDOT":0},{"OBJECT_NAME":"TITAN 4B R/B","OBJECT_ID":"2000-047B","EPOCH":"2026-03-12T21:02:43.797120","MEAN_MOTION":15.0959831,"ECCENTRICITY":0.0038672,"INCLINATION":67.9903,"RA_OF_ASC_NODE":31.5476,"ARG_OF_PERICENTER":31.6526,"MEAN_ANOMALY":328.6937,"EPHEMERIS_TYPE":0,"CLASSIFICATION_TYPE":"U","NORAD_CAT_ID":26474,"ELEMENT_SET_NO":999,"REV_AT_EPOCH":39339,"BSTAR":0.00032527,"MEAN_MOTION_DOT":5.198e-5,"MEAN_MOTION_DDOT":0},{"OBJECT_NAME":"ENVISAT","OBJECT_ID":"2002-009A","EPOCH":"2026-03-12T20:55:01.119936","MEAN_MOTION":14.39038275,"ECCENTRICITY":0.000132,"INCLINATION":98.3732,"RA_OF_ASC_NODE":25.3932,"ARG_OF_PERICENTER":83.3093,"MEAN_ANOMALY":294.1209,"EPHEMERIS_TYPE":0,"CLASSIFICATION_TYPE":"U","NORAD_CAT_ID":27386,"ELEMENT_SET_NO":999,"REV_AT_EPOCH":25963,"BSTAR":6.5679e-5,"MEAN_MOTION_DOT":1.6e-6,"MEAN_MOTION_DDOT":0},{"OBJECT_NAME":"IDEFIX & ARIANE 42P R/B","OBJECT_ID":"2002-021B","EPOCH":"2026-03-12T17:05:32.305344","MEAN_MOTION":14.31028646,"ECCENTRICITY":0.0011754,"INCLINATION":98.587,"RA_OF_ASC_NODE":10.2823,"ARG_OF_PERICENTER":173.2496,"MEAN_ANOMALY":186.8847,"EPHEMERIS_TYPE":0,"CLASSIFICATION_TYPE":"U","NORAD_CAT_ID":27422,"ELEMENT_SET_NO":999,"REV_AT_EPOCH":24445,"BSTAR":0.00014795,"MEAN_MOTION_DOT":3.46e-6,"MEAN_MOTION_DDOT":0},{"OBJECT_NAME":"AQUA","OBJECT_ID":"2002-022A","EPOCH":"2026-03-12T21:27:56.471040","MEAN_MOTION":14.61985884,"ECCENTRICITY":5.8e-5,"INCLINATION":98.4178,"RA_OF_ASC_NODE":39.3177,"ARG_OF_PERICENTER":92.9238,"MEAN_ANOMALY":292.0584,"EPHEMERIS_TYPE":0,"CLASSIFICATION_TYPE":"U","NORAD_CAT_ID":27424,"ELEMENT_SET_NO":999,"REV_AT_EPOCH":26920,"BSTAR":0.00025969,"MEAN_MOTION_DOT":1.252e-5,"MEAN_MOTION_DDOT":0},{"OBJECT_NAME":"CZ-4B R/B","OBJECT_ID":"2002-024C","EPOCH":"2026-03-12T18:28:33.893472","MEAN_MOTION":14.14548225,"ECCENTRICITY":0.0050341,"INCLINATION":98.8832,"RA_OF_ASC_NODE":125.1608,"ARG_OF_PERICENTER":15.5117,"MEAN_ANOMALY":93.0238,"EPHEMERIS_TYPE":0,"CLASSIFICATION_TYPE":"U","NORAD_CAT_ID":27432,"ELEMENT_SET_NO":999,"REV_AT_EPOCH":22967,"BSTAR":4.8379e-5,"MEAN_MOTION_DOT":4.9e-7,"MEAN_MOTION_DDOT":0},{"OBJECT_NAME":"MIDORI II (ADEOS-II)","OBJECT_ID":"2002-056A","EPOCH":"2026-03-12T19:32:01.614912","MEAN_MOTION":14.29288057,"ECCENTRICITY":0.0001473,"INCLINATION":98.7771,"RA_OF_ASC_NODE":30.313,"ARG_OF_PERICENTER":39.0122,"MEAN_ANOMALY":321.1166,"EPHEMERIS_TYPE":0,"CLASSIFICATION_TYPE":"U","NORAD_CAT_ID":27597,"ELEMENT_SET_NO":999,"REV_AT_EPOCH":21074,"BSTAR":0.00017468,"MEAN_MOTION_DOT":3.99e-6,"MEAN_MOTION_DDOT":0},{"OBJECT_NAME":"H-2A R/B","OBJECT_ID":"2002-056E","EPOCH":"2026-03-12T20:11:58.778592","MEAN_MOTION":14.33763149,"ECCENTRICITY":0.0070695,"INCLINATION":98.3206,"RA_OF_ASC_NODE":32.0873,"ARG_OF_PERICENTER":151.3349,"MEAN_ANOMALY":238.3866,"EPHEMERIS_TYPE":0,"CLASSIFICATION_TYPE":"U","NORAD_CAT_ID":27601,"ELEMENT_SET_NO":999,"REV_AT_EPOCH":21456,"BSTAR":0.00012924,"MEAN_MOTION_DOT":3.28e-6,"MEAN_MOTION_DDOT":0},{"OBJECT_NAME":"CZ-4B R/B","OBJECT_ID":"2003-049C","EPOCH":"2026-03-12T13:07:26.945760","MEAN_MOTION":14.55023378,"ECCENTRICITY":0.0047354,"INCLINATION":98.688,"RA_OF_ASC_NODE":66.5637,"ARG_OF_PERICENTER":221.9948,"MEAN_ANOMALY":137.7613,"EPHEMERIS_TYPE":0,"CLASSIFICATION_TYPE":"U","NORAD_CAT_ID":28059,"ELEMENT_SET_NO":999,"REV_AT_EPOCH":18701,"BSTAR":0.00012323,"MEAN_MOTION_DOT":4.87e-6,"MEAN_MOTION_DDOT":0},{"OBJECT_NAME":"CZ-2C R/B","OBJECT_ID":"2004-012C","EPOCH":"2026-03-12T17:49:37.336800","MEAN_MOTION":15.64897873,"ECCENTRICITY":0.0012996,"INCLINATION":97.7224,"RA_OF_ASC_NODE":137.3253,"ARG_OF_PERICENTER":297.1576,"MEAN_ANOMALY":62.8357,"EPHEMERIS_TYPE":0,"CLASSIFICATION_TYPE":"U","NORAD_CAT_ID":28222,"ELEMENT_SET_NO":999,"REV_AT_EPOCH":20475,"BSTAR":0.00058434,"MEAN_MOTION_DOT":0.0005748,"MEAN_MOTION_DDOT":0},{"OBJECT_NAME":"SL-16 R/B","OBJECT_ID":"2004-021B","EPOCH":"2026-03-12T17:02:05.663328","MEAN_MOTION":14.14596735,"ECCENTRICITY":0.0004254,"INCLINATION":70.9996,"RA_OF_ASC_NODE":226.1541,"ARG_OF_PERICENTER":4.8299,"MEAN_ANOMALY":355.2863,"EPHEMERIS_TYPE":0,"CLASSIFICATION_TYPE":"U","NORAD_CAT_ID":28353,"ELEMENT_SET_NO":999,"REV_AT_EPOCH":12326,"BSTAR":-0.0001168,"MEAN_MOTION_DOT":-2.72e-6,"MEAN_MOTION_DDOT":0},{"OBJECT_NAME":"CZ-4B R/B","OBJECT_ID":"2004-035C","EPOCH":"2026-03-12T15:47:06.309024","MEAN_MOTION":15.29120497,"ECCENTRICITY":0.0030713,"INCLINATION":97.3503,"RA_OF_ASC_NODE":105.865,"ARG_OF_PERICENTER":320.6231,"MEAN_ANOMALY":39.2777,"EPHEMERIS_TYPE":0,"CLASSIFICATION_TYPE":"U","NORAD_CAT_ID":28415,"ELEMENT_SET_NO":999,"REV_AT_EPOCH":18036,"BSTAR":0.00030743,"MEAN_MOTION_DOT":8.737e-5,"MEAN_MOTION_DDOT":0},{"OBJECT_NAME":"CZ-2C R/B","OBJECT_ID":"2004-046B","EPOCH":"2026-03-12T17:03:53.641728","MEAN_MOTION":14.26993231,"ECCENTRICITY":0.0140051,"INCLINATION":98.198,"RA_OF_ASC_NODE":346.507,"ARG_OF_PERICENTER":145.5412,"MEAN_ANOMALY":215.4949,"EPHEMERIS_TYPE":0,"CLASSIFICATION_TYPE":"U","NORAD_CAT_ID":28480,"ELEMENT_SET_NO":999,"REV_AT_EPOCH":10893,"BSTAR":6.6858e-5,"MEAN_MOTION_DOT":1.4e-6,"MEAN_MOTION_DDOT":0},{"OBJECT_NAME":"ARIANE 5 R/B","OBJECT_ID":"2004-049H","EPOCH":"2026-03-12T11:05:27.302784","MEAN_MOTION":14.8527194,"ECCENTRICITY":0.0083749,"INCLINATION":98.2631,"RA_OF_ASC_NODE":240.0229,"ARG_OF_PERICENTER":342.9143,"MEAN_ANOMALY":16.9254,"EPHEMERIS_TYPE":0,"CLASSIFICATION_TYPE":"U","NORAD_CAT_ID":28499,"ELEMENT_SET_NO":999,"REV_AT_EPOCH":14620,"BSTAR":0.00011277,"MEAN_MOTION_DOT":9.65e-6,"MEAN_MOTION_DDOT":0},{"OBJECT_NAME":"CZ-2D R/B","OBJECT_ID":"2005-024B","EPOCH":"2026-03-12T14:17:20.145984","MEAN_MOTION":15.60430671,"ECCENTRICITY":0.0005369,"INCLINATION":97.3599,"RA_OF_ASC_NODE":86.8489,"ARG_OF_PERICENTER":39.5162,"MEAN_ANOMALY":320.6486,"EPHEMERIS_TYPE":0,"CLASSIFICATION_TYPE":"U","NORAD_CAT_ID":28738,"ELEMENT_SET_NO":999,"REV_AT_EPOCH":14023,"BSTAR":0.0005409,"MEAN_MOTION_DOT":0.00044496,"MEAN_MOTION_DDOT":0}]
