HELIOS 1B               
1 25977U 99064A   26071.74048604  .00002363  00000+0  26573-3 0  9996
2 25977  98.1686 334.0732 0002417  70.9295 289.2182 14.87713347685712
TERRA                   
1 25994U 99068A   26071.79753246  .00000547  00000+0  12058-3 0  9994
2 25994  97.9588 125.1135 0002884 144.4376 278.8082 14.61018611395535
SL-16 R/B               
1 26070U 00006B   26071.48526719 -.00000168  00000+0 -61237-4 0  9998
2 26070  71.0006  91.9589 0016616 186.1025 173.9898 14.15825371348956
TITAN 4B R/B            
1 26474U 00047B   26071.87689580  .00005198  00000+0  32527-3 0  9995
2 26474  67.9903  31.5476 0038672  31.6526 328.6937 15.09598310393390
ENVISAT                 
1 27386U 02009A   26071.87154074  .00000160  00000+0  65679-4 0  9992
2 27386  98.3732  25.3932 0001320  83.3093 294.1209 14.39038275259630
IDEFIX & ARIANE 42P R/B 
1 27422U 02021B   26071.71217946  .00000346  00000+0  14795-3 0  9996
2 27422  98.5870  10.2823 0011754 173.2496 186.8847 14.31028646244458
AQUA                    
1 27424U 02022A   26071.89440360  .00001252  00000+0  25969-3 0  9998
2 27424  98.4178  39.3177 0000580  92.9238 292.0584 14.61985884269207
CZ-4B R/B               
1 27432U 02024C   26071.76983673  .00000049  00000+0  48379-4 0  9998
2 27432  98.8832 125.1608 0050341  15.5117  93.0238 14.14548225229671
MIDORI II (ADEOS-II)    
1 27597U 02056A   26071.81390758  .00000399  00000+0  17468-3 0  9999
2 27597  98.7771  30.3130 0001473  39.0122 321.1166 14.29288057210743
H-2A R/B                
1 27601U 02056E   26071.84165253  .00000328  00000+0  12924-3 0  9992
2 27601  98.3206  32.0873 0070695 151.3349 238.3866 14.33763149214567
CZ-4B R/B               
1 28059U 03049C   26071.54683965  .00000487  00000+0  12323-3 0  9994
2 28059  98.6880  66.5637 0047354 221.9948 137.7613 14.55023378187019
CZ-2C R/B               
1 28222U 04012C   26071.74279325  .00057480  00000+0  58434-3 0  9998
2 28222  97.7224 137.3253 0012996 297.1576  62.8357 15.64897873204754
SL-16 R/B               
1 28353U 04021B   26071.70978777 -.00000272  00000+0 -11680-3 0  9997
2 28353  70.9996 226.1541 0004254   4.8299 355.2863 14.14596735123262
CZ-4B R/B               
1 28415U 04035C   26071.65771191  .00008737  00000+0  30743-3 0  9999
2 28415  97.3503 105.8650 0030713 320.6231  39.2777 15.29120497180368
CZ-2C R/B               
1 28480U 04046B   26071.71103752  .00000140  00000+0  66858-4 0  9999
2 28480  98.1980 346.5070 0140051 145.5412 215.4949 14.26993231108932
ARIANE 5 R/B            
1 28499U 04049H   26071.46212156  .00000965  00000+0  11277-3 0  9992
2 28499  98.2631 240.0229 0083749 342.9143  16.9254 14.85271940146200
CZ-2D R/B               
1 28738U 05024B   26071.59537206  .00044496  00000+0  54090-3 0  9999
2 28738  97.3599  86.8489 0005369  39.5162 320.6486 15.60430671140236
